FENGYUN 1C DEB          
1 32225U 99025CVX 17341.11514898  .00000048  00000-0  50304-4 0  9990
2 32225  99.0243 292.7761 0074342 136.9557 223.7461 14.10969020532943
